     2.100          NAVIGATION                              RINEX VERSION / TYPE
fic2rin                                 02/18/2009 01:21:18 PGM / RUN BY / DATE
                                                            END OF HEADER
 9 09  2 17 22  0  0.0  .409930944443D-04  .204636307899D-11  .000000000000D+00
     .310000000000D+02 -.493125000000D+02  .424517682865D-08 -.717264788775D+00
    -.244379043579D-05  .201888813172D-01  .579282641411D-05  .515365116501D+04
     .252000000000D+06 -.236555933952D-06 -.181792258092D+01  .178813934326D-06
     .974818990678D+00  .277406250000D+03  .146136921329D+01 -.834391898629D-08
     .425017703693D-10  .100000000000D+01  .151900000000D+04  .000000000000D+00
     .240000000000D+01  .000000000000D+00 -.558793544769D-08  .310000000000D+02
     .244806000000D+06  .400000000000D+01
10 09  2 17 22  0  0.0 -.113081187010D-04 -.568434188608D-12  .000000000000D+00
     .800000000000D+01  .661250000000D+02  .455518974194D-08  .287502960759D+01
     .333413481712D-05  .855788425542D-02  .717118382454D-05  .515379285240D+04
     .252000000000D+06 -.894069671631D-07  .243049198718D+01 -.108033418655D-06
     .959678318134D+00  .240562500000D+03  .595108611474D+00 -.789390024120D-08
    -.140362989539D-09  .100000000000D+01  .151900000000D+04  .000000000000D+00
     .240000000000D+01  .000000000000D+00 -.279396772385D-08  .800000000000D+01
     .244806000000D+06  .400000000000D+01
12 09  2 17 22  0  0.0 -.314983539283D-03  .386535248253D-11  .000000000000D+00
     .100000000000D+03 -.508437500000D+02  .434232373236D-08  .394742118479D+00
    -.271573662758D-05  .323508796282D-02  .820308923721D-05  .515371735573D+04
     .252000000000D+06  .260770320892D-07 -.731375654766D+00 -.726431608200D-07
     .966179594835D+00  .225687500000D+03 -.811461598210D+00 -.792925885689D-08
     .195365280605D-09  .100000000000D+01  .151900000000D+04  .000000000000D+00
     .340000000000D+01  .000000000000D+00 -.116415321827D-07  .100000000000D+03
     .244806000000D+06  .400000000000D+01
13 09  2 17 22  0  0.0  .288894865662D-03  .125055521494D-11  .000000000000D+00
     .860000000000D+02  .940625000000D+01  .376979988444D-08  .269973214254D+01
     .538304448128D-06  .380654179025D-02  .383518636227D-05  .515375393295D+04
     .252000000000D+06  .204890966415D-07 -.277577642077D+01 -.577419996262D-07
     .995448144182D+00  .319625000000D+03  .150697470133D+01 -.784068373881D-08
    -.878608026122D-10  .100000000000D+01  .151900000000D+04  .000000000000D+00
     .340000000000D+01  .000000000000D+00 -.111758708954D-07  .860000000000D+02
     .244806000000D+06  .400000000000D+01
14 09  2 17 22  0  0.0 -.152728985995D-03  .534328137292D-11  .000000000000D+00
     .760000000000D+02  .578125000000D+01  .388016162431D-08  .232141927142D+01
     .193715095520D-06  .438567542005D-02  .419467687607D-05  .515357525635D+04
     .252000000000D+06  .372529029846D-08 -.279465772071D+01 -.122934579849D-06
     .989023711642D+00  .311656250000D+03 -.210356784842D+01 -.782711174491D-08
    -.835749098019D-10  .100000000000D+01  .151900000000D+04  .000000000000D+00
     .340000000000D+01  .000000000000D+00 -.931322574615D-08  .760000000000D+02
     .244806000000D+06  .400000000000D+01
15 09  2 17 22  0  0.0 -.258085783571D-03 -.522959453519D-11  .000000000000D+00
     .900000000000D+02  .218750000000D+02  .466197990446D-08  .276537418523D+01
     .126659870148D-05  .141194264870D-02  .395812094212D-05  .515358600616D+04
     .252000000000D+06  .298023223877D-07 -.284399530149D+01  .689178705215D-07
     .957150716072D+00  .302031250000D+03 -.684638805863D+00 -.823677166603D-08
    -.453590322429D-10  .100000000000D+01  .151900000000D+04  .000000000000D+00
     .340000000000D+01  .000000000000D+00 -.977888703346D-08  .900000000000D+02
     .244806000000D+06  .400000000000D+01
16 09  2 17 22  0  0.0  .738692469895D-04 -.284217094304D-11  .000000000000D+00
     .610000000000D+02 -.447500000000D+02  .427874965567D-08 -.212446432534D+01
    -.224821269512D-05  .508991465904D-02  .841915607452D-05  .515376402473D+04
     .252000000000D+06 -.726431608200D-07 -.714581091891D+00  .391155481339D-07
     .967707352370D+00  .224812500000D+03 -.388435142169D+00 -.781961143249D-08
     .357514891930D-09  .100000000000D+01  .151900000000D+04  .000000000000D+00
     .240000000000D+01  .000000000000D+00 -.977888703346D-08  .610000000000D+02
     .244806000000D+06  .400000000000D+01
17 09  2 17 22  0  0.0  .473787076771D-04  .102318153949D-11  .000000000000D+00
     .950000000000D+02 -.534375000000D+01  .456769026263D-08  .306992043332D+01
    -.141561031342D-06  .423522840720D-02  .787153840065D-05  .515363904190D+04
     .252000000000D+06 -.260770320892D-07  .327071662339D+00 -.633299350739D-07
     .960009345774D+00  .227312500000D+03 -.273883547174D+01 -.782818321811D-08
     .195365280605D-09  .100000000000D+01  .151900000000D+04  .000000000000D+00
     .340000000000D+01  .000000000000D+00 -.102445483208D-07  .950000000000D+02
     .244806000000D+06  .400000000000D+01
18 09  2 17 22  0  0.0 -.824267044663D-04  .352429196937D-11  .000000000000D+00
     .740000000000D+02  .676875000000D+02  .486270255108D-08 -.199968416747D+01
     .354275107384D-05  .993128702976D-02  .622309744358D-05  .515375866699D+04
     .252000000000D+06  .113621354103D-06  .243743032089D+01 -.614672899246D-07
     .943737155835D+00  .250343750000D+03 -.243636322748D+01 -.809855162290D-08
    -.210723063176D-10  .100000000000D+01  .151900000000D+04  .000000000000D+00
     .240000000000D+01  .000000000000D+00 -.107102096081D-07  .740000000000D+02
     .244806000000D+06  .400000000000D+01
19 09  2 17 22  0  0.0  .322256237268D-04 -.682121026330D-12  .000000000000D+00
     .670000000000D+02 -.556250000000D+01  .473805450185D-08  .232635681597D+01
    -.294297933578D-06  .524098798633D-02  .743940472603D-05  .515356200981D+04
     .252000000000D+06  .428408384323D-07  .383393534405D+00  .108033418655D-06
     .957716629839D+00  .232500000000D+03 -.381502649882D+00 -.794675958586D-08
     .582167106740D-10  .100000000000D+01  .151900000000D+04  .000000000000D+00
     .240000000000D+01  .000000000000D+00 -.144354999065D-07  .670000000000D+02
     .244806000000D+06  .400000000000D+01
20 09  2 17 22  0  0.0  .904863700271D-04 -.102318153949D-11  .000000000000D+00
     .760000000000D+02  .845937500000D+02  .496056377025D-08 -.184275817688D+01
     .437907874584D-05  .397560244892D-02  .658445060253D-05  .515367611122D+04
     .252000000000D+06  .819563865662D-07  .238365622453D+01  .279396772385D-07
     .943304895727D+00  .245468750000D+03  .131371955406D+01 -.820891336276D-08
    -.910752222200D-10  .100000000000D+01  .151900000000D+04  .000000000000D+00
     .240000000000D+01  .000000000000D+00 -.651925802231D-08  .760000000000D+02
     .244806000000D+06  .400000000000D+01
21 09  2 17 22  0  0.0  .285385176539D-04 -.181898940355D-11  .000000000000D+00
     .670000000000D+02  .311250000000D+02  .522986070183D-08 -.715241463352D+00
     .174902379513D-05  .146766090766D-01  .732205808163D-05  .515363990402D+04
     .252000000000D+06  .296160578728D-06  .137863844123D+01  .191852450371D-06
     .934265871626D+00  .222593750000D+03 -.264444339493D+01 -.837427739370D-08
    -.168578450541D-09  .100000000000D+01  .151900000000D+04  .000000000000D+00
     .340000000000D+01  .000000000000D+00 -.116415321827D-07  .670000000000D+02
     .244806000000D+06  .400000000000D+01
22 09  2 17 22  0  0.0  .204891897738D-03 -.795807864051D-12  .000000000000D+00
     .680000000000D+02  .697812500000D+02  .495127766916D-08 -.311222603460D+01
     .363588333130D-05  .487197411712D-02  .601448118687D-05  .515366609764D+04
     .252000000000D+06  .875443220139D-07  .244333226932D+01 -.242143869400D-07
     .941399968653D+00  .253218750000D+03 -.182560346844D+01 -.815426822943D-08
    -.126433837905D-09  .100000000000D+01  .151900000000D+04  .000000000000D+00
     .340000000000D+01  .000000000000D+00 -.181607902050D-07  .680000000000D+02
     .244806000000D+06  .400000000000D+01
23 09  2 17 22  0  0.0  .387157779187D-03  .682121026330D-12  .000000000000D+00
     .220000000000D+02  .126875000000D+02  .438946855327D-08  .180357571405D+01
     .869855284691D-06  .579495495185D-02  .354833900928D-05  .515364496422D+04
     .252000000000D+06  .335276126862D-07 -.282542183023D+01  .670552253723D-07
     .971058063826D+00  .316437500000D+03  .287812502375D+01 -.816748306560D-08
    -.139291516336D-09  .100000000000D+01  .151900000000D+04  .000000000000D+00
     .240000000000D+01  .000000000000D+00 -.200234353542D-07  .220000000000D+02
     .244806000000D+06  .400000000000D+01
24 09  2 17 22  0  0.0  .166395679116D-03  .306954461848D-11  .000000000000D+00
     .920000000000D+02  .335312500000D+02  .480698594455D-08 -.209202526239D+01
     .176578760147D-05  .693311612122D-02  .815652310848D-05  .515367213631D+04
     .252000000000D+06 -.199303030968D-06  .140911505370D+01  .856816768646D-07
     .950892694852D+00  .218812500000D+03 -.639019856051D+00 -.803462038848D-08
    -.193579491934D-09  .100000000000D+01  .151900000000D+04  .000000000000D+00
     .340000000000D+01  .000000000000D+00 -.139698386192D-08  .920000000000D+02
     .244806000000D+06  .400000000000D+01
25 09  2 17 22  0  0.0  .248960219324D-03  .245563569479D-10  .000000000000D+00
     .650000000000D+02 -.704687500000D+02  .427232081645D-08 -.157482508615D+01
    -.354461371899D-05  .117762499722D-01  .571087002754D-05  .515367291451D+04
     .252000000000D+06 -.203028321266D-06 -.187789816842D+01  .217929482460D-06
     .968215988505D+00  .273281250000D+03 -.122574821738D+01 -.810890919719D-08
    -.671456540289D-10  .100000000000D+01  .151900000000D+04  .000000000000D+00
     .485000000000D+01  .000000000000D+00 -.745058059692D-08  .650000000000D+02
     .244806000000D+06  .400000000000D+01
